{
"type": "FeatureCollection",
"name": "aoi",
"crs": { "type": "name", "properties": { "name": "urn:ogc:def:crs:OGC:1.3:CRS84" } },
"features": [
{ "type": "Feature", "properties": { "name": "AgriParcel01 AOI", "area_km2": 36.917374618210552, "selection": "Grid search inside verified taluk boundaries" }, "geometry": { "type": "Polygon", "coordinates": [ [ [ 77.54833200007198, 8.721025218638998 ], [ 77.54833200007198, 8.776025218638997 ], [ 77.493332000071973, 8.776025218638997 ], [ 77.493332000071973, 8.721025218638998 ], [ 77.54833200007198, 8.721025218638998 ] ] ] } }
]
}
